#dP2026  3 22  0  0  0.00000000     289 d+D   IGc20 FIT AIUB
## 2411      0.00000000   300.00000000 61121 0.0000000000000
+  116   G01G02G03G04G05G06G07G08G09G10G11G12G13G14G15G16G17
+        G18G19G20G21G22G23G24G25G26G27G28G29G30G31G32R02R03
+        R04R05R06R07R08R09R11R12R14R15R16R17R18R19R20R21R22
+        R24R26R28E02E03E04E05E06E07E08E09E10E11E12E13E14E15
+        E16E18E19E21E23E25E26E27E28E29E30E31E32E33E34E36C19
+        C20C21C22C23C24C25C26C27C28C29C30C32C33C34C35C36C37
+        C38C39C40C41C42C43C44C45C47C48C49J02J03J04  0  0  0
++         5  5  5  5  5  5  5  5  5  5  5  5  5  5  5  5  5
++         5  5  5  5  5  5  5  5  5  5  5  5  5  5  5  5  5
++         5  5  5  5  5  5  5  5  5  5  5  5  5  5  5  5  5
++         5  5  5  5  5  5  5  5  5  5  5  5  5  5  5  5  5
++         5  5  5  5  5  5  5  5  5  5  5  5  5  5  5  5  5
++         5  5  5  5  5  5  5  5  5  5  5  5  5  5  5  5  5
++         5  5  5  5  5  5  5  5  5  5  5  5  5  5  0  0  0
%c M  cc GPS ccc cccc cccc cccc cccc ccccc ccccc ccccc ccccc
%c cc cc ccc ccc cccc cccc cccc cccc ccccc ccccc ccccc ccccc
%f  1.2500000  1.025000000  0.00000000000  0.000000000000000
%f  0.0000000  0.000000000  0.00000000000  0.000000000000000
%i    0    0    0    0      0      0      0      0         0
%i    0    0    0    0      0      0      0      0         0
/* Center for Orbit Determination in Europe (CODE)                              
/* MGEX orbits and clocks for year-day 2026-0810                                
/* Middle day of a 3-day long-arc multi-GNSS solution                           
/* Systems considered: GPS/GLONASS/Galileo/BeiDou/QZSS                          
/* Product reference - DOI 10.48350/197028                                      
/* PCV:IGS20_2408 OL/AL:FES2014b NONE     YN ORB:CoN CLK:CoN                    
*  2026  3 22 13 10  0.00000000
PG01  12504.324311 -20579.981705 -11122.511237    312.922375
PG02  17845.355363 -19227.071731   1276.506547     63.071488
PG03   4581.107056 -13843.570518 -22392.081225    531.052687
PG04   1916.078333 -24396.474018 -10075.166932     49.989586
PG05 -19796.192791   6534.948219  16310.723155   -230.687455
PG06 -17287.269798  -2100.492405 -20038.432375   -612.618369
PG07  -2638.135881 -17556.335767  20252.025453   -163.849209
PG08   9146.340566 -16246.006062  18541.131259    474.352496
PG09  -6589.750560 -25678.789948   -786.427651    765.108729
PG10  23384.313325  11388.382931   6458.173482   -590.371219
PG11 -22223.500442  10086.814639 -10335.938118   -398.833453
PG12  -8983.281727  12917.668570 -21691.189235   -607.940361
PG13 -13317.958484   8902.568898  20862.726496    682.570660
PG14 -21606.106341 -13130.780123   8710.794877    740.293348
PG15  -6282.380196  17997.024182  17930.814637    396.410628
PG16  23271.005649   -714.614224  12778.716198    230.640709
PG17 -12853.212280 -18894.169919 -12938.781602    -94.017091
PG18   3795.223897  15940.315417  20895.082507   -395.675244
PG19 -15218.303466 -10714.052231 -19215.241760    694.580464
PG20 -12196.950860  11005.557979  20946.183936     66.764945
PG21 -24778.162725   -644.376583   9604.343833    410.505034
PG22 -23674.939962 -11353.714829   2936.432453    -30.302141
PG23  13838.416952  15246.899393  17004.457527    627.082175
PG24 -13873.802962  22043.866094  -4606.141815    -70.770491
PG25   5927.855280  16617.485752 -20310.833824    435.522506
PG26  26462.871286   3838.727757   1257.611459   -343.827356
PG27  14377.515094  -5106.899147  21361.789045    -77.269319
PG28  17494.028122   1969.564690 -19893.875063   -572.710961
PG29   3303.140904  26214.790650  -1754.877208   -354.418059
PG30 -12973.303604  -9347.697288  21425.233941    161.079886
PG31  21887.081458  -6695.943913 -14014.748177   -160.082883
PG32  15006.717225  15371.900495 -15463.166138    -36.216614
PR02  14932.753568  19962.413353  -5505.576511     12.121168
PR03  14341.390166   5300.122435 -20380.866872    141.061029
PR04   5352.878583 -10927.347910 -22381.185306    344.657557
PR05  -6091.416249 -21385.748971 -12466.984773    165.315106
PR06 -14890.575764 -20247.361503   4311.637213     24.529393
PR07 -14388.560793  -5405.408836  20390.112288    119.782466
PR08  -5106.676965  11375.641139  22326.528419     -3.767353
PR09 -18170.759627  -6929.527966  16578.261057    315.326326
PR11 -19361.749255   7702.433019 -14718.871633     21.888293
PR12   -798.698791  11038.098013 -22960.216385     66.802847
PR14  25462.385277   -631.672263  -1126.013706     31.917918
PR15  18723.856833  -8031.512155  15357.472078     57.930578
PR16    631.181819 -10896.134613  23061.864819     46.768273
PR17  14434.232886  -7362.961278  19717.428850    280.394177
PR18  14749.456082 -19541.948341   7075.416968    252.883025
PR19   6920.094886 -22136.143350 -10686.540502     39.112788
PR20  -5320.704115 -11549.164625 -22088.424769    230.003458
PR21 -13467.248256   4016.100908 -21285.593692   -291.820101
PR22 -14668.310364  20163.801341  -5387.369503    116.844793
PR24   6313.178139  10815.142099  22231.747009   -155.288911
PR26  -7241.309864   8428.072519  22984.330538    -27.457511
PR28  -5002.919464 -11204.758601 -22350.861171 999999.999999
PE02 -27473.858932  -9689.294682  -5207.971404     26.951025
PE03 -16530.989497  -8432.976872  23063.522826     -6.743878
PE04  14034.887429 -14337.184382 -21756.688166   -103.248629
PE05  -9296.423945 -25944.605076  10824.135957     21.528585
PE06   9497.385361 -23135.787985 -15844.120595   -248.050849
PE07  -3483.506067  28303.395838   7902.859369    -52.287462
PE08 -14032.564489  14054.591162  21943.434093   -113.339434
PE09   3496.966753 -28319.970809  -7911.325522   -212.721228
PE10  20264.716094 -19872.513069  -8397.605509   -779.729980
PE11  11530.340206 -21042.986550 -17328.143847   4467.951806
PE12  24913.313657 -15946.145050    580.338979    -34.206707
PE13 -12042.311269  21035.198656  17007.627951    -50.847222
PE14  16977.627372   6650.812604  17606.895674   5892.502886
PE15 -25139.791418  15597.125498  -1223.117331   -244.756531
PE16    965.826065 -17807.803642  23625.489213    -20.696999
PE18 -18328.402842 -18583.491853 -16804.680680   2583.992764
PE19  16189.490216   9584.100383 -22836.997347   2821.692600
PE21  18155.949574  19293.616997 -13210.227134   -729.834569
PE23  27530.266674   9556.463974   5156.524346    -29.107234
PE25 -17695.933994 -19405.715087  13647.730912     21.987277
PE26   8063.664845  14076.738015  24764.604094    254.189253
PE27  -2190.402103  17451.912192 -23814.772124   -940.218325
PE28  17023.185864  -3930.223332 -23893.319652    -29.242914
PE29   9433.357891  25855.649086 -10891.496569   -189.670961
PE30 -20489.997057   5872.609331 -20551.007595   -859.948253
PE31  20963.220067  -5329.149482  20208.091747   -127.941223
PE32 -17030.992072   3879.101538  23902.359342     -8.776184
PE33  23062.565105   -880.741321  18534.874890     -8.093725
PE34 -23164.744821   1092.411634 -18397.552284   -243.208696
PE36  -7744.335964 -14073.074145 -24859.150097   -540.406348
PC19  11316.889339 -10374.420179 -23280.457938   -958.321172
PC20  20775.933400   5927.497666 -17629.270035   -937.500872
PC21 -18652.102351 -20785.737672    304.934419   -866.689748
PC22  -5355.047857 -22145.771569 -16143.978752    445.883957
PC23  -4672.349755  17015.327740 -21617.105901   -476.141198
PC24 -26909.090523    418.733642   7320.399655   -175.824090
PC25 -21517.989418  13629.857983 -11392.601366    911.352532
PC26 -16746.165374 -10541.543783  19640.148459   -614.042635
PC27   7988.258851  19023.330665  18768.138620    610.264200
PC28  -2874.014139  26697.407321   7609.822452    497.638245
PC29  14913.706324 -19967.996236  12542.685950    579.858391
PC30  16948.353563  -1585.096575  22093.615680    411.792575
PC32  18739.184763  20654.587471   -173.369145   -934.885725
PC33 -11387.507538  10351.764232  23281.323514   -926.221160
PC34 -16961.860107   1252.988896 -22146.630971    909.152515
PC35   3076.544013 -27075.952976  -5952.274167   -315.911969
PC36  22115.383002 -12964.545111  11063.194323    294.401294
PC37  15494.686663  11514.208766 -20160.140399   -947.586881
PC38 -12960.116116  18404.637588  35743.498812    279.997950
PC39 -24397.919943  31426.698384 -14215.702439    -21.188641
PC40 -10299.574410  35720.810568 -19575.704635   -217.425797
PC41   4197.338749  21673.790844  17099.763673   -939.563003
PC42 -21450.881923  -8088.467095  15990.001917   -899.182445
PC43 -14407.247452  21008.383858 -11439.350808    134.535295
PC44  -8922.622645 -18718.404132 -18685.754993    849.800292
PC45   5496.057440 -16885.870991  21524.102386   -757.196105
PC47  17358.635499 -12769.735321  17723.621964   -564.408607
PC48  18311.874713  -1197.672951 -21010.538516    666.816214
PC49 -10153.340432  25884.149155  -2478.524250   -917.029795
PJ02 -23968.191226  18305.650382 -24786.417904     -1.765242
PJ03 -30160.732924  29455.897897   7070.311814     -1.784895
PJ04 -25404.445369  26525.770361  26307.474778     -0.064023
EOF
